[{"OBJECT_NAME":"LIME","OBJECT_ID":"2025-009AR","EPOCH":"2026-03-09T17:44:15.459648","MEAN_MOTION":15.28703313,"ECCENTRICITY":0.00016347,"INCLINATION":97.3985,"RA_OF_ASC_NODE":151.4831,"ARG_OF_PERICENTER":35.9029,"MEAN_ANOMALY":324.232,"EPHEMERIS_TYPE":0,"CLASSIFICATION_TYPE":"U","NORAD_CAT_ID":62648,"ELEMENT_SET_NO":999,"REV_AT_EPOCH":6376,"BSTAR":0.00047722827,"MEAN_MOTION_DOT":0.00013254,"MEAN_MOTION_DDOT":0},{"OBJECT_NAME":"STARLINK-32807","OBJECT_ID":"2025-019S","EPOCH":"2026-03-09T01:55:27.059520","MEAN_MOTION":15.2756908,"ECCENTRICITY":9.839e-5,"INCLINATION":42.9955,"RA_OF_ASC_NODE":84.9826,"ARG_OF_PERICENTER":150.1615,"MEAN_ANOMALY":209.9293,"EPHEMERIS_TYPE":0,"CLASSIFICATION_TYPE":"U","NORAD_CAT_ID":62845,"ELEMENT_SET_NO":999,"REV_AT_EPOCH":6224,"BSTAR":0.00096135463,"MEAN_MOTION_DOT":0.00026278,"MEAN_MOTION_DDOT":0}]
